{
    "links": {
        "self": "http://www.neowsapp.com/rest/v1/neo/54050975?api_key=iIulBulltgU6a56xZRHN4H3l9WmuAYTsLGpBGhQ2"
    },
    "id": "54050975",
    "neo_reference_id": "54050975",
    "name": "(2020 PW)",
    "designation": "2020 PW",
    "nasa_jpl_url": "http://ssd.jpl.nasa.gov/sbdb.cgi?sstr=54050975",
    "absolute_magnitude_h": 25.747,
    "estimated_diameter": {
        "kilometers": {
            "estimated_diameter_min": 0.0188432138,
            "estimated_diameter_max": 0.0421347071
        },
        "meters": {
            "estimated_diameter_min": 18.8432138363,
            "estimated_diameter_max": 42.1347070526
        },
        "miles": {
            "estimated_diameter_min": 0.0117086266,
            "estimated_diameter_max": 0.0261812851
        },
        "feet": {
            "estimated_diameter_min": 61.8215696827,
            "estimated_diameter_max": 138.2372322863
        }
    },
    "is_potentially_hazardous_asteroid": false,
    "close_approach_data": [
        {
            "close_approach_date": "2015-08-02",
            "close_approach_date_full": "2015-Aug-02 06:17",
            "epoch_date_close_approach": 1438496220000,
            "relative_velocity": {
                "kilometers_per_second": "18.1871125748",
                "kilometers_per_hour": "65473.605269145",
                "miles_per_hour": "40682.7521184862"
            },
            "miss_distance": {
                "astronomical": "0.1621675247",
                "lunar": "63.0831671083",
                "kilometers": "24259916.278292389",
                "miles": "15074412.9655134082"
            },
            "orbiting_body": "Earth"
        },
        {
            "close_approach_date": "2020-08-12",
            "close_approach_date_full": "2020-Aug-12 19:09",
            "epoch_date_close_approach": 1597259340000,
            "relative_velocity": {
                "kilometers_per_second": "13.7473445937",
                "kilometers_per_hour": "49490.4405371627",
                "miles_per_hour": "30751.4351215498"
            },
            "miss_distance": {
                "astronomical": "0.0138735236",
                "lunar": "5.3968006804",
                "kilometers": "2075449.579954732",
                "miles": "1289624.5682980216"
            },
            "orbiting_body": "Earth"
        },
        {
            "close_approach_date": "2123-07-20",
            "close_approach_date_full": "2123-Jul-20 14:15",
            "epoch_date_close_approach": 4845536100000,
            "relative_velocity": {
                "kilometers_per_second": "25.9208345919",
                "kilometers_per_hour": "93315.0045307626",
                "miles_per_hour": "57982.314898573"
            },
            "miss_distance": {
                "astronomical": "0.4260832859",
                "lunar": "165.7463982151",
                "kilometers": "63741152.013241033",
                "miles": "39606915.2639629354"
            },
            "orbiting_body": "Earth"
        },
        {
            "close_approach_date": "2128-07-27",
            "close_approach_date_full": "2128-Jul-27 14:05",
            "epoch_date_close_approach": 5003993100000,
            "relative_velocity": {
                "kilometers_per_second": "21.7695835044",
                "kilometers_per_hour": "78370.5006157385",
                "miles_per_hour": "48696.3813409293"
            },
            "miss_distance": {
                "astronomical": "0.2850409682",
                "lunar": "110.8809366298",
                "kilometers": "42641521.705457734",
                "miles": "26496212.9420513692"
            },
            "orbiting_body": "Earth"
        },
        {
            "close_approach_date": "2143-08-18",
            "close_approach_date_full": "2143-Aug-18 20:06",
            "epoch_date_close_approach": 5479214760000,
            "relative_velocity": {
                "kilometers_per_second": "12.8489162857",
                "kilometers_per_hour": "46256.0986285218",
                "miles_per_hour": "28741.7408394834"
            },
            "miss_distance": {
                "astronomical": "0.0246226764",
                "lunar": "9.5782211196",
                "kilometers": "3683499.943139268",
                "miles": "2288820.7306391784"
            },
            "orbiting_body": "Earth"
        }
    ],
    "orbital_data": {
        "orbit_id": "5",
        "orbit_determination_date": "2020-10-07 06:59:19",
        "first_observation_date": "2020-08-08",
        "last_observation_date": "2020-08-12",
        "data_arc_in_days": 4,
        "observations_used": 49,
        "orbit_uncertainty": "7",
        "minimum_orbit_intersection": ".0101058",
        "jupiter_tisserand_invariant": "3.803",
        "epoch_osculation": "2459000.5",
        "eccentricity": ".55722977742044",
        "semi_major_axis": "1.848175024556195",
        "inclination": "3.763943664082558",
        "ascending_node_longitude": "312.5821493601493",
        "orbital_period": "917.7260774623577",
        "perihelion_distance": ".8183168669887304",
        "perihelion_argument": "71.22926642372624",
        "aphelion_distance": "2.87803318212366",
        "perihelion_time": "2459118.527332483809",
        "mean_anomaly": "313.7009563772432",
        "mean_motion": ".3922739135793666",
        "equinox": "J2000",
        "orbit_class": {
            "orbit_class_type": "APO",
            "orbit_class_description": "Near-Earth asteroid orbits which cross the Earth’s orbit similar to that of 1862 Apollo",
            "orbit_class_range": "a (semi-major axis) > 1.0 AU; q (perihelion) < 1.017 AU"
        }
    },
    "is_sentry_object": false
}